[
    {
        "name": "ONEWEB-0057",
        "id": 45160,
        "line1": "1 45160U 20008AF  20258.58334491 -.00013441  00000-0 -95268-2 0  9997",
        "line2": "2 45160  87.7149  95.1414 0017184 238.3758 183.2138 13.97820695  1743",
        "epoch": "2020-09-14T14:00:01Z"
    },
    {
        "name": "ONEWEB-0058",
        "id": 45161,
        "line1": "1 45161U 20008AG  20258.58334491 -.00013188  00000-0 -83998-2 0  9993",
        "line2": "2 45161  87.7556  95.1478 0018518 232.5659 237.8815 14.03770110  1803",
        "epoch": "2020-09-14T14:00:01Z"
    },
    {
        "name": "ONEWEB-0059",
        "id": 45162,
        "line1": "1 45162U 20008AH  20258.58334491 -.01394784  00000-0 -88458+0 0  9992",
        "line2": "2 45162  87.7329  94.9511 0020971 229.4072  84.5491 14.07726134  1759",
        "epoch": "2020-09-14T14:00:01Z"
    },
    {
        "name": "ONEWEB-0062",
        "id": 45163,
        "line1": "1 45163U 20008AJ  20258.58334491 -.00015018  00000-0 -10771-1 0  9997",
        "line2": "2 45163  87.7242  95.1125 0016332 238.8917 151.8216 13.97167411  1743",
        "epoch": "2020-09-14T14:00:01Z"
    },
    {
        "name": "ONEWEB-0065",
        "id": 45164,
        "line1": "1 45164U 20008AK  20258.58334491 -.00014071  00000-0 -10030-1 0  9994",
        "line2": "2 45164  87.6834  95.1146 0020140 257.6762 149.9063 13.97477432  1747",
        "epoch": "2020-09-14T14:00:01Z"
    },
    {
        "name": "ONEWEB-0066",
        "id": 45424,
        "line1": "1 45424U 20020A   20258.58334491 -.00041561  00000-0 -43513-2 0  9994",
        "line2": "2 45424  87.5579  82.3691 0025154  12.6931 289.8709 14.89705623  1740",
        "epoch": "2020-09-14T14:00:01Z"
    },
    {
        "name": "ONEWEB-0067",
        "id": 45425,
        "line1": "1 45425U 20020B   20258.58334491 -.00038931  00000-0 -40722-2 0  9991",
        "line2": "2 45425  87.5538  82.3437 0027102  11.3529 357.8989 14.89690138  1771",
        "epoch": "2020-09-14T14:00:01Z"
    },
    {
        "name": "ONEWEB-0080",
        "id": 45426,
        "line1": "1 45426U 20020C   20258.58334491 -.00045559  00000-0 -47136-2 0  9992",
        "line2": "2 45426  87.5655  82.4700 0028593  13.1480 184.0203 14.90130143  1795",
        "epoch": "2020-09-14T14:00:01Z"
    },
    {
        "name": "ONEWEB-0090",
        "id": 45427,
        "line1": "1 45427U 20020D   20258.58334491 -.00043385  00000-0 -45672-2 0  9991",
        "line2": "2 45427  87.5448  82.2995 0027809  15.7078 129.0678 14.89439354  1799",
        "epoch": "2020-09-14T14:00:01Z"
    },
    {
        "name": "ONEWEB-0061",
        "id": 45428,
        "line1": "1 45428U 20020E   20258.58334491 -.01454381  00000-0 -20990+0 0  9998",
        "line2": "2 45428  87.5356  82.1054 0029362  19.1868 126.1775 14.79329800  1759",
        "epoch": "2020-09-14T14:00:01Z"
    },
    {
        "name": "ONEWEB-0081",
        "id": 45429,
        "line1": "1 45429U 20020F   20258.58334491 -.00039299  00000-0 -41128-2 0  9994",
        "line2": "2 45429  87.5551  82.3751 0028893  19.3826 322.4880 14.89633015  1763",
        "epoch": "2020-09-14T14:00:01Z"
    },
    {
        "name": "ONEWEB-0069",
        "id": 45430,
        "line1": "1 45430U 20020G   20258.58334491 -.00043613  00000-0 -44964-2 0  9992",
        "line2": "2 45430  87.5591  82.3793 0029775  22.5904 127.2909 14.90235686  1754",
        "epoch": "2020-09-14T14:00:01Z"
    },
    {
        "name": "ONEWEB-0031",
        "id": 45431,
        "line1": "1 45431U 20020H   20258.58334491 -.00086564  00000-0 -90960-2 0  9992",
        "line2": "2 45431  87.5489  82.3044 0026993  21.9910 243.2837 14.89760167  1764",
        "epoch": "2020-09-14T14:00:01Z"
    },
    {
        "name": "ONEWEB-0027",
        "id": 45432,
        "line1": "1 45432U 20020J   20258.58334491 -.00042769  00000-0 -44495-2 0  9994",
        "line2": "2 45432  87.5583  82.3610 0027645  24.1563 107.9923 14.89914941  1766",
        "epoch": "2020-09-14T14:00:01Z"
    },
    {
        "name": "ONEWEB-0064",
        "id": 45433,
        "line1": "1 45433U 20020K   20258.58334491 -.00042619  00000-0 -44549-2 0  9999",
        "line2": "2 45433  87.5571  82.3757 0027006  24.2215 105.3409 14.89737890  1758",
        "epoch": "2020-09-14T14:00:01Z"
    },
    {
        "name": "ONEWEB-0018",
        "id": 45434,
        "line1": "1 45434U 20020L   20258.58334491 -.01431259  00000-0 -15988+0 0  9995",
        "line2": "2 45434  87.5507  82.3014 0026330  25.7272 114.8759 14.90362090  1775",
        "epoch": "2020-09-14T14:00:01Z"
    },
    {
        "name": "ONEWEB-0083",
        "id": 45435,
        "line1": "1 45435U 20020M   20258.58334491 -.01208878  00000-0 -13298+0 0  9997",
        "line2": "2 45435  87.5475  82.2985 0025554  25.2864 157.5227 14.90443572  1752",
        "epoch": "2020-09-14T14:00:01Z"
    },
    {
        "name": "ONEWEB-0095",
        "id": 45436,
        "line1": "1 45436U 20020N   20258.58334491 -.00041801  00000-0 -43284-2 0  9999",
        "line2": "2 45436  87.5656  82.4040 0023932  21.4709 277.0226 14.90173075  1746",
        "epoch": "2020-09-14T14:00:01Z"
    },
    {
        "name": "ONEWEB-0092",
        "id": 45437,
        "line1": "1 45437U 20020P   20258.58334491 -.00045171  00000-0 -47116-2 0  9992",
        "line2": "2 45437  87.5642  82.4173 0023336  21.2707 226.3462 14.89908210  1792",
        "epoch": "2020-09-14T14:00:01Z"
    },
    {
        "name": "ONEWEB-0085",
        "id": 45438,
        "line1": "1 45438U 20020Q   20258.58334491 -.00045934  00000-0 -47892-2 0  9991",
        "line2": "2 45438  87.5635  82.3788 0023724  20.4528 202.8780 14.89921871  1755",
        "epoch": "2020-09-14T14:00:01Z"
    },
    {
        "name": "ONEWEB-0096",
        "id": 45439,
        "line1": "1 45439U 20020R   20258.58334491 -.00040600  00000-0 -42000-2 0  9993",
        "line2": "2 45439  87.5655  82.4089 0024954  19.5469  61.9905 14.90186095  1758",
        "epoch": "2020-09-14T14:00:01Z"
    },
    {
        "name": "ONEWEB-0037",
        "id": 45440,
        "line1": "1 45440U 20020S   20258.58334491 -.00043496  00000-0 -44966-2 0  9994",
        "line2": "2 45440  87.5636  82.3777 0025032  19.0417 257.4056 14.90226375  1742",
        "epoch": "2020-09-14T14:00:01Z"
    },
    {
        "name": "ONEWEB-0042",
        "id": 45441,
        "line1": "1 45441U 20020T   20258.58334491 -.00039156  00000-0 -40791-2 0  9995",
        "line2": "2 45441  87.5637  82.3971 0025117  18.8332 328.6864 14.89894378  1792",
        "epoch": "2020-09-14T14:00:01Z"
    },
    {
        "name": "ONEWEB-0098",
        "id": 45442,
        "line1": "1 45442U 20020U   20258.58334491 -.00042426  00000-0 -43632-2 0  9997",
        "line2": "2 45442  87.5671  82.4014 0026794  17.1715 272.9203 14.90394551  1742",
        "epoch": "2020-09-14T14:00:01Z"
    },
    {
        "name": "ONEWEB-0055",
        "id": 45443,
        "line1": "1 45443U 20020V   20258.58334491 -.00043171  00000-0 -44975-2 0  9997",
        "line2": "2 45443  87.5635  82.3837 0028207  17.7997 262.6072 14.89849344  1769",
        "epoch": "2020-09-14T14:00:01Z"
    },
    {
        "name": "ONEWEB-0093",
        "id": 45444,
        "line1": "1 45444U 20020W   20258.58334491 -.00045730  00000-0 -47239-2 0  9997",
        "line2": "2 45444  87.5867  82.5147 0028463  17.4774 196.3902 14.90196898  1808",
        "epoch": "2020-09-14T14:00:01Z"
    },
    {
        "name": "ONEWEB-0029",
        "id": 45445,
        "line1": "1 45445U 20020X   20258.58334491 -.00039906  00000-0 -41268-2 0  9992",
        "line2": "2 45445  87.5717  82.4326 0028098  19.4878  43.4197 14.90132488  1759",
        "epoch": "2020-09-14T14:00:01Z"
    },
    {
        "name": "ONEWEB-0068",
        "id": 45446,
        "line1": "1 45446U 20020Y   20258.58334491 -.00038943  00000-0 -40301-2 0  9990",
        "line2": "2 45446  87.5707  82.4340 0028853  21.3326 334.2353 14.90081922  1744",
        "epoch": "2020-09-14T14:00:01Z"
    },
    {
        "name": "ONEWEB-0046",
        "id": 45447,
        "line1": "1 45447U 20020Z   20258.58334491 -.00045475  00000-0 -47247-2 0  9995",
        "line2": "2 45447  87.5664  82.4312 0028060  22.8739 169.5745 14.89973335  1773",
        "epoch": "2020-09-14T14:00:01Z"
    },
    {
        "name": "ONEWEB-0063",
        "id": 45448,
        "line1": "1 45448U 20020AA  20258.58334491 -.00041510  00000-0 -42787-2 0  9996",
        "line2": "2 45448  87.5713  82.4324 0029718  23.1073  83.1353 14.90234370  1753",
        "epoch": "2020-09-14T14:00:01Z"
    },
    {
        "name": "ONEWEB-0019",
        "id": 45449,
        "line1": "1 45449U 20020AB  20258.58334491 -.00046068  00000-0 -47523-2 0  9993",
        "line2": "2 45449  87.5539  82.2670 0029326  25.4649 187.7790 14.90234816  1774",
        "epoch": "2020-09-14T14:00:01Z"
    },
    {
        "name": "ONEWEB-0094",
        "id": 45450,
        "line1": "1 45450U 20020AC  20258.58334491 -.00041966  00000-0 -43282-2 0  9995",
        "line2": "2 45450  87.5713  82.4238 0028342  28.0601  87.6374 14.90244629  1753",
        "epoch": "2020-09-14T14:00:01Z"
    },
    {
        "name": "ONEWEB-0087",
        "id": 45451,
        "line1": "1 45451U 20020AD  20258.58334491 -.00040665  00000-0 -42597-2 0  9999",
        "line2": "2 45451  87.5636  82.4019 0027653  29.5464  53.9475 14.89629253  1781",
        "epoch": "2020-09-14T14:00:01Z"
    },
    {
        "name": "ONEWEB-0082",
        "id": 45452,
        "line1": "1 45452U 20020AE  20258.58334491 -.00039019  00000-0 -40269-2 0  9995",
        "line2": "2 45452  87.5876  82.5040 0027810  29.4608 317.4864 14.90215541  1746",
        "epoch": "2020-09-14T14:00:01Z"
    },
    {
        "name": "ONEWEB-0050",
        "id": 45453,
        "line1": "1 45453U 20020AF  20258.58334491 -.00046150  00000-0 -42546-2 0  9990",
        "line2": "2 45453  87.5361  82.2187 0027289  24.5401 174.2462 14.94739534  1753",
        "epoch": "2020-09-14T14:00:01Z"
    }
]